{"fetched_at":"2026-03-29T16:36:15Z","count":15609,"tles":[{"name":"GLOBAL-31","line1":"1 63027U 25033B   26087.86966086  .00018048  00000+0  46461-3 0  9997","line2":"2 63027  58.9985 280.7459 0011772  46.2302 313.9746 15.39316665 61964","category":"Other"}]}